MARIO                   
1 55123U 98067UQ  23115.44827133  .00787702  29408-3  15680-2 0  9999
2 55123  51.6242 216.2930 0014649 331.8976  28.1241 15.99081912 18396
