Run started:2025-04-12 12:27:16.056160

Test results:
>> Issue: [B814:read] os.read
   Severity: High   Confidence: Medium
   Location: /home/blue/PyPIAgent/Dataset/study/unzip_benign/sgp4-2.24/sgp4-2.24/setup.py:39
   More Info: https://bandit.readthedocs.io/en/latest/plugins/b814_read.html
38	with open(path, 'rb') as f:
39	    text = f.read().decode('utf-8')
40	text = text.replace('-*- coding: utf-8 -*-', '')  # for Python 2.7

--------------------------------------------------
>> Issue: [B824:url_found] url_found
   Severity: Medium   Confidence: Medium
   Location: /home/blue/PyPIAgent/Dataset/study/unzip_benign/sgp4-2.24/sgp4-2.24/setup.py:51
   More Info: https://bandit.readthedocs.io/en/latest/plugins/b824_url_found.html
50	      author_email = 'brandon@rhodesmill.org',
51	      url = 'https://github.com/brandon-rhodes/python-sgp4',
52	      classifiers = [

--------------------------------------------------
>> Issue: [B824:url_found] url_found
   Severity: Medium   Confidence: Medium
   Location: /home/blue/PyPIAgent/Dataset/study/unzip_benign/sgp4-2.24/sgp4-2.24/sgp4/tests.py:791
   More Info: https://bandit.readthedocs.io/en/latest/plugins/b824_url_found.html
790	# https://celestrak.org/NORAD/elements/gp.php?CATNR=55123&FORMAT=XML
791	MARIO_XML = """\
792	<?xml version="1.0" encoding="UTF-8"?>
793	<ndm xmlns:xsi="http://www.w3.org/2001/XMLSchema-instance" xsi:noNamespaceSchemaLocation="https://sanaregistry.org/r/ndmxml_unqualified/ndmxml-2.0.0-master-2.0.xsd">
794	<omm id="CCSDS_OMM_VERS" version="2.0">
795	<header><CREATION_DATE/><ORIGINATOR/></header><body><segment><metadata><OBJECT_NAME>MARIO</OBJECT_NAME><OBJECT_ID>1998-067UQ</OBJECT_ID><CENTER_NAME>EARTH</CENTER_NAME><REF_FRAME>TEME</REF_FRAME><TIME_SYSTEM>UTC</TIME_SYSTEM><MEAN_ELEMENT_THEORY>SGP4</MEAN_ELEMENT_THEORY></metadata><data><meanElements><EPOCH>2023-04-25T10:45:30.642912</EPOCH><MEAN_MOTION>15.99081912</MEAN_MOTION><ECCENTRICITY>.0014649</ECCENTRICITY><INCLINATION>51.6242</INCLINATION><RA_OF_ASC_NODE>216.2930</RA_OF_ASC_NODE><ARG_OF_PERICENTER>331.8976</ARG_OF_PERICENTER><MEAN_ANOMALY>28.1241</MEAN_ANOMALY></meanElements><tleParameters><EPHEMERIS_TYPE>0</EPHEMERIS_TYPE><CLASSIFICATION_TYPE>U</CLASSIFICATION_TYPE><NORAD_CAT_ID>55123</NORAD_CAT_ID><ELEMENT_SET_NO>999</ELEMENT_SET_NO><REV_AT_EPOCH>1839</REV_AT_EPOCH><BSTAR>.1568E-2</BSTAR><MEAN_MOTION_DOT>.787702E-2</MEAN_MOTION_DOT><MEAN_MOTION_DDOT>.29408E-3</MEAN_MOTION_DDOT></tleParameters></data></segment></body></omm>
796	</ndm>
797	"""
798	
799	# https://celestrak.com/NORAD/elements/gp.php?CATNR=55123&FORMAT=CSV
800	MARIO_CSV = """\

--------------------------------------------------

Code scanned:
	Total lines of code: 4304
	Total lines skipped (#nosec): 0

Run metrics:
	Total issues (by severity):
		Undefined: 0.0
		Low: 0.0
		Medium: 2.0
		High: 1.0
	Total issues (by confidence):
		Undefined: 0.0
		Low: 0.0
		Medium: 3.0
		High: 0.0
Files skipped (0):
